[{"OBJECT_NAME":"STARLINK-4404","OBJECT_ID":"2022-084G","EPOCH":"2026-03-10T00:00:02.999808","MEAN_MOTION":15.89461708,"ECCENTRICITY":0.00018333,"INCLINATION":97.613,"RA_OF_ASC_NODE":154.9838,"ARG_OF_PERICENTER":332.1714,"MEAN_ANOMALY":73.2326,"EPHEMERIS_TYPE":0,"CLASSIFICATION_TYPE":"U","NORAD_CAT_ID":53195,"ELEMENT_SET_NO":999,"REV_AT_EPOCH":596,"BSTAR":0.0019093566,"MEAN_MOTION_DOT":0.00551297,"MEAN_MOTION_DDOT":0.00011790569},{"OBJECT_NAME":"STARLINK-36943","OBJECT_ID":"2026-040W","EPOCH":"2026-03-09T22:00:01.999584","MEAN_MOTION":16.07517232,"ECCENTRICITY":9.279e-5,"INCLINATION":97.2771,"RA_OF_ASC_NODE":17.138,"ARG_OF_PERICENTER":100.6518,"MEAN_ANOMALY":312.4692,"EPHEMERIS_TYPE":0,"CLASSIFICATION_TYPE":"U","NORAD_CAT_ID":68035,"ELEMENT_SET_NO":999,"REV_AT_EPOCH":251,"BSTAR":-0.0014586961,"MEAN_MOTION_DOT":-0.0115003,"MEAN_MOTION_DDOT":0.00046406593}]
